start=new Date('2023-02-11T00:00:00.000Z').valueOf();
sats=[{"NORAD_CAT_ID":"53729","TIME_SYSTEM":"UTC","REF_FRAME":"TEME","FILE":"3785071","ARG_OF_PERICENTER":"78.4363","RA_OF_ASC_NODE":"254.7849","ELEMENT_SET_NO":"999","MEAN_MOTION_DDOT":"0.0000000000000","TLE_LINE2":"2 53729  53.2167 254.7849 0001169  78.4363 281.6761 15.08845229 25078","MEAN_MOTION_DOT":"-0.00000250","TLE_LINE1":"1 53729U 22107AF  23041.86498736 -.00000250  00000-0  23494-5 0  9994","MEAN_ELEMENT_THEORY":"SGP4","ECCENTRICITY":"0.00011690","INCLINATION":"53.2167","SITE":"AFETR","PERIOD":"95.437","RCS_SIZE":"LARGE","MEAN_ANOMALY":"281.6761","GP_ID":"225073988","OBJECT_TYPE":"PAYLOAD","CENTER_NAME":"EARTH","REV_AT_EPOCH":"2507","COUNTRY_CODE":"US","OBJECT_ID":"2022-107AF","EPHEMERIS_TYPE":"0","DECAY_DATE":null,"EPOCH":"2023-02-10T20:45:34.907904","MEAN_MOTION":"15.08845229","OBJECT_NAME":"STARLINK-4651","CLASSIFICATION_TYPE":"U","BSTAR":"0.00000234940000","SEMIMAJOR_AXIS":"6917.864","PERIAPSIS":"538.921","APOAPSIS":"540.538","LAUNCH_DATE":"2022-09-05"},{"OBJECT_ID":"2022-107AG","EPHEMERIS_TYPE":"0","MEAN_MOTION":"15.08838033","EPOCH":"2023-02-10T20:34:57.813312","DECAY_DATE":null,"SEMIMAJOR_AXIS":"6917.886","BSTAR":"0.00009134800000","OBJECT_NAME":"STARLINK-4641","CLASSIFICATION_TYPE":"U","LAUNCH_DATE":"2022-09-05","APOAPSIS":"540.478","PERIAPSIS":"539.025","RCS_SIZE":"LARGE","PERIOD":"95.438","MEAN_ANOMALY":"275.6047","SITE":"AFETR","INCLINATION":"53.2165","GP_ID":"225073239","OBJECT_TYPE":"PAYLOAD","CENTER_NAME":"EARTH","REV_AT_EPOCH":"2504","COUNTRY_CODE":"US","MEAN_MOTION_DOT":"0.00001166","TLE_LINE1":"1 53730U 22107AG  23041.85761358  .00001166  00000-0  91348-4 0  9996","MEAN_ELEMENT_THEORY":"SGP4","ECCENTRICITY":"0.00010500","NORAD_CAT_ID":"53730","TIME_SYSTEM":"UTC","REF_FRAME":"TEME","FILE":"3785071","ARG_OF_PERICENTER":"84.5065","RA_OF_ASC_NODE":"254.7415","TLE_LINE2":"2 53730  53.2165 254.7415 0001050  84.5065 275.6047 15.08838033 25045","ELEMENT_SET_NO":"999","MEAN_MOTION_DDOT":"0.0000000000000"},{"MEAN_MOTION_DDOT":"0.0000000000000","ELEMENT_SET_NO":"999","TLE_LINE2":"2 53731  53.2170 254.8081 0001094  84.6470 275.4647 15.08845345 25072","NORAD_CAT_ID":"53731","TIME_SYSTEM":"UTC","FILE":"3785071","REF_FRAME":"TEME","ARG_OF_PERICENTER":"84.6470","RA_OF_ASC_NODE":"254.8081","ECCENTRICITY":"0.00010940","MEAN_MOTION_DOT":"0.00003688","TLE_LINE1":"1 53731U 22107AH  23041.86867011  .00003688  00000-0  24967-3 0  9994","MEAN_ELEMENT_THEORY":"SGP4","CENTER_NAME":"EARTH","REV_AT_EPOCH":"2507","COUNTRY_CODE":"US","INCLINATION":"53.2170","SITE":"AFETR","MEAN_ANOMALY":"275.4647","RCS_SIZE":"LARGE","PERIOD":"95.437","GP_ID":"225072989","OBJECT_TYPE":"PAYLOAD","CLASSIFICATION_TYPE":"U","OBJECT_NAME":"STARLINK-4636","SEMIMAJOR_AXIS":"6917.864","BSTAR":"0.00024967000000","PERIAPSIS":"538.972","APOAPSIS":"540.486","LAUNCH_DATE":"2022-09-05","OBJECT_ID":"2022-107AH","EPHEMERIS_TYPE":"0","DECAY_DATE":null,"EPOCH":"2023-02-10T20:50:53.097504","MEAN_MOTION":"15.08845345"},{"MEAN_MOTION_DOT":"0.00000549","MEAN_ELEMENT_THEORY":"SGP4","TLE_LINE1":"1 53732U 22107AJ  23041.66259541  .00000549  00000-0  52597-4 0  9990","ECCENTRICITY":"0.00010320","NORAD_CAT_ID":"53732","TIME_SYSTEM":"UTC","REF_FRAME":"TEME","FILE":"3785071","ARG_OF_PERICENTER":"82.6743","RA_OF_ASC_NODE":"255.6517","MEAN_MOTION_DDOT":"0.0000000000000","ELEMENT_SET_NO":"999","TLE_LINE2":"2 53732  53.2169 255.6517 0001032  82.6743 277.4367 15.08833260 25015","OBJECT_ID":"2022-107AJ","EPHEMERIS_TYPE":"0","DECAY_DATE":null,"EPOCH":"2023-02-10T15:54:08.243424","MEAN_MOTION":"15.08833260","OBJECT_NAME":"STARLINK-4661","CLASSIFICATION_TYPE":"U","SEMIMAJOR_AXIS":"6917.901","BSTAR":"0.00005259700000","PERIAPSIS":"539.052","LAUNCH_DATE":"2022-09-05","APOAPSIS":"540.480","SITE":"AFETR","INCLINATION":"53.2169","PERIOD":"95.438","RCS_SIZE":"LARGE","MEAN_ANOMALY":"277.4367","GP_ID":"225074241","OBJECT_TYPE":"PAYLOAD","CENTER_NAME":"EARTH","COUNTRY_CODE":"US","REV_AT_EPOCH":"2501"},{"MEAN_MOTION_DOT":"0.00002280","TLE_LINE1":"1 53733U 22107AK  23041.87604081  .00002280  00000-0  16128-3 0  9990","MEAN_ELEMENT_THEORY":"SGP4","ECCENTRICITY":"0.00013530","NORAD_CAT_ID":"53733","TIME_SYSTEM":"UTC","REF_FRAME":"TEME","FILE":"3785071","ARG_OF_PERICENTER":"75.8530","RA_OF_ASC_NODE":"254.8518","MEAN_MOTION_DDOT":"0.0000000000000","ELEMENT_SET_NO":"999","TLE_LINE2":"2 53733  53.2176 254.8518 0001353  75.8530 284.2612 15.08842592 25073","OBJECT_ID":"2022-107AK","EPHEMERIS_TYPE":"0","DECAY_DATE":null,"MEAN_MOTION":"15.08842592","EPOCH":"2023-02-10T21:01:29.925984","CLASSIFICATION_TYPE":"U","OBJECT_NAME":"STARLINK-4574","SEMIMAJOR_AXIS":"6917.872","BSTAR":"0.00016128000000","PERIAPSIS":"538.801","LAUNCH_DATE":"2022-09-05","APOAPSIS":"540.673","SITE":"AFETR","INCLINATION":"53.2176","RCS_SIZE":"LARGE","PERIOD":"95.437","MEAN_ANOMALY":"284.2612","GP_ID":"225074488","OBJECT_TYPE":"PAYLOAD","CENTER_NAME":"EARTH","COUNTRY_CODE":"US","REV_AT_EPOCH":"2507"},{"MEAN_ELEMENT_THEORY":"SGP4","TLE_LINE1":"1 53734U 22107AL  23041.86593797  .00000324  00000-0  38430-4 0  9999","MEAN_MOTION_DOT":"0.00000324","ECCENTRICITY":"0.00011280","ARG_OF_PERICENTER":"79.0640","RA_OF_ASC_NODE":"254.7948","NORAD_CAT_ID":"53734","TIME_SYSTEM":"UTC","REF_FRAME":"TEME","FILE":"3785071","TLE_LINE2":"2 53734  53.2165 254.7948 0001128  79.0640 281.0479 15.08847436 25074","ELEMENT_SET_NO":"999","MEAN_MOTION_DDOT":"0.0000000000000","EPOCH":"2023-02-10T20:46:57.040608","MEAN_MOTION":"15.08847436","DECAY_DATE":null,"OBJECT_ID":"2022-107AL","EPHEMERIS_TYPE":"0","APOAPSIS":"540.503","LAUNCH_DATE":"2022-09-05","PERIAPSIS":"538.942","SEMIMAJOR_AXIS":"6917.858","BSTAR":"0.00003843000000","CLASSIFICATION_TYPE":"U","OBJECT_NAME":"STARLINK-4616","GP_ID":"225072739","OBJECT_TYPE":"PAYLOAD","PERIOD":"95.437","RCS_SIZE":"LARGE","MEAN_ANOMALY":"281.0479","INCLINATION":"53.2165","SITE":"AFETR","CENTER_NAME":"EARTH","REV_AT_EPOCH":"2507","COUNTRY_CODE":"US"},{"PERIAPSIS":"538.994","LAUNCH_DATE":"2022-09-05","APOAPSIS":"540.421","CLASSIFICATION_TYPE":"U","OBJECT_NAME":"STARLINK-4618","SEMIMAJOR_AXIS":"6917.842","BSTAR":"0.00023466000000","DECAY_DATE":null,"MEAN_MOTION":"15.08852419","EPOCH":"2023-02-10T21:42:28.931328","EPHEMERIS_TYPE":"0","OBJECT_ID":"2022-107AM","COUNTRY_CODE":"US","REV_AT_EPOCH":"2494","CENTER_NAME":"EARTH","OBJECT_TYPE":"PAYLOAD","GP_ID":"225073490","SITE":"AFETR","INCLINATION":"53.2174","RCS_SIZE":"LARGE","PERIOD":"95.437","MEAN_ANOMALY":"268.5253","ECCENTRICITY":"0.00010310","TLE_LINE1":"1 53735U 22107AM  23041.90450152  .00003450  00000-0  23466-3 0  9997","MEAN_ELEMENT_THEORY":"SGP4","MEAN_MOTION_DOT":"0.00003450","ELEMENT_SET_NO":"999","MEAN_MOTION_DDOT":"0.0000000000000","TLE_LINE2":"2 53735  53.2174 264.3092 0001031  91.5857 268.5253 15.08852419 24946","RA_OF_ASC_NODE":"264.3092","ARG_OF_PERICENTER":"91.5857","REF_FRAME":"TEME","FILE":"3785071","NORAD_CAT_ID":"53735","TIME_SYSTEM":"UTC"},{"TLE_LINE1":"1 53736U 22107AN  23041.87235419  .00004142  00000-0  27813-3 0  9990","MEAN_ELEMENT_THEORY":"SGP4","MEAN_MOTION_DOT":"0.00004142","ECCENTRICITY":"0.00011350","ARG_OF_PERICENTER":"85.3611","RA_OF_ASC_NODE":"254.8289","TIME_SYSTEM":"UTC","NORAD_CAT_ID":"53736","REF_FRAME":"TEME","FILE":"3785071","TLE_LINE2":"2 53736  53.2164 254.8289 0001135  85.3611 274.7511 15.08846675 25070","ELEMENT_SET_NO":"999","MEAN_MOTION_DDOT":"0.0000000000000","EPOCH":"2023-02-10T20:56:11.402016","MEAN_MOTION":"15.08846675","DECAY_DATE":null,"OBJECT_ID":"2022-107AN","EPHEMERIS_TYPE":"0","APOAPSIS":"540.510","LAUNCH_DATE":"2022-09-05","PERIAPSIS":"538.940","SEMIMAJOR_AXIS":"6917.860","BSTAR":"0.00027813000000","OBJECT_NAME":"STARLINK-4652","CLASSIFICATION_TYPE":"U","GP_ID":"225073742","OBJECT_TYPE":"PAYLOAD","RCS_SIZE":"LARGE","PERIOD":"95.437","MEAN_ANOMALY":"274.7511","INCLINATION":"53.2164","SITE":"AFETR","CENTER_NAME":"EARTH","REV_AT_EPOCH":"2507","COUNTRY_CODE":"US"},{"ELEMENT_SET_NO":"999","MEAN_MOTION_DDOT":"0.0000000000000","TLE_LINE2":"2 53737  53.2179 264.3354 0001331  80.2100 279.9043 15.08845534 25093","RA_OF_ASC_NODE":"264.3354","ARG_OF_PERICENTER":"80.2100","FILE":"3785071","REF_FRAME":"TEME","NORAD_CAT_ID":"53737","TIME_SYSTEM":"UTC","ECCENTRICITY":"0.00013310","MEAN_ELEMENT_THEORY":"SGP4","TLE_LINE1":"1 53737U 22107AP  23041.90819557  .00004990  00000-0  33131-3 0  9997","MEAN_MOTION_DOT":"0.00004990","REV_AT_EPOCH":"2509","COUNTRY_CODE":"US","CENTER_NAME":"EARTH","OBJECT_TYPE":"PAYLOAD","GP_ID":"225073989","SITE":"AFETR","INCLINATION":"53.2179","MEAN_ANOMALY":"279.9043","RCS_SIZE":"LARGE","PERIOD":"95.437","PERIAPSIS":"538.808","APOAPSIS":"540.649","LAUNCH_DATE":"2022-09-05","CLASSIFICATION_TYPE":"U","OBJECT_NAME":"STARLINK-4646","BSTAR":"0.00033131000000","SEMIMAJOR_AXIS":"6917.863","DECAY_DATE":null,"EPOCH":"2023-02-10T21:47:48.097248","MEAN_MOTION":"15.08845534","EPHEMERIS_TYPE":"0","OBJECT_ID":"2022-107AP"},{"MEAN_MOTION":"15.08857070","EPOCH":"2023-02-10T21:37:11.110656","DECAY_DATE":null,"EPHEMERIS_TYPE":"0","OBJECT_ID":"2022-107AQ","APOAPSIS":"540.322","LAUNCH_DATE":"2022-09-05","PERIAPSIS":"539.064","BSTAR":"0.00070094000000","SEMIMAJOR_AXIS":"6917.828","CLASSIFICATION_TYPE":"U","OBJECT_NAME":"STARLINK-4662","OBJECT_TYPE":"PAYLOAD","GP_ID":"225073240","RCS_SIZE":"LARGE","PERIOD":"95.436","MEAN_ANOMALY":"292.6282","SITE":"AFETR","INCLINATION":"53.2169","REV_AT_EPOCH":"2494","COUNTRY_CODE":"US","CENTER_NAME":"EARTH","MEAN_ELEMENT_THEORY":"SGP4","TLE_LINE1":"1 53738U 22107AQ  23041.90082304  .00010890  00000-0  70094-3 0  9995","MEAN_MOTION_DOT":"0.00010890","ECCENTRICITY":"0.00009090","RA_OF_ASC_NODE":"264.2863","ARG_OF_PERICENTER":"67.4806","REF_FRAME":"TEME","FILE":"3785071","TIME_SYSTEM":"UTC","NORAD_CAT_ID":"53738","TLE_LINE2":"2 53738  53.2169 264.2863 0000909  67.4806 292.6282 15.08857070 24945","ELEMENT_SET_NO":"999","MEAN_MOTION_DDOT":"0.0000000000000"}];
